COMMENT,ORIGINATOR,NORAD_CAT_ID,OBJECT_NAME,OBJECT_TYPE,CLASSIFICATION_TYPE,INTLDES,EPOCH,EPOCH_MICROSECONDS,MEAN_MOTION,ECCENTRICITY,INCLINATION,RA_OF_ASC_NODE,ARG_OF_PERICENTER,MEAN_ANOMALY,EPHEMERIS_TYPE,ELEMENT_SET_NO,REV_AT_EPOCH,BSTAR,MEAN_MOTION_DOT,MEAN_MOTION_DDOT,FILE,TLE_LINE0,TLE_LINE1,TLE_LINE2,OBJECT_ID,OBJECT_NUMBER,SEMIMAJOR_AXIS,PERIOD,APOGEE,PERIGEE,DECAYED
"GENERATED VIA SPACETRACK.ORG API","18 SPCS","55101","SPACEBEE-159","PAYLOAD","U","23001CW","2024-05-25 03:49:14","258784","15.50178722","0.0010788","97.4196","212.8849","220.0275","140.0182","0","999","7758","0.001632","0.00093093","0","4327213","0 SPACEBEE-159","1 55101U 23001CW  24146.15919281  .00093093  00000-0  16320-2 0  9999","2 55101  97.4196 212.8849 0010788 220.0275 140.0182 15.50178722 77587","2023-001CW","55101","6794.341","92.893","423.536","408.876","0"
"GENERATED VIA SPACETRACK.ORG API","18 SPCS","55101","SPACEBEE-159","PAYLOAD","U","23001CW","2024-05-26 03:03:27","662400","15.50358758","0.0010917","97.4193","213.8818","216.8233","143.227","0","999","7773","0.0016529","0.00094914","0","4328092","0 SPACEBEE-159","1 55101U 23001CW  24147.12740350  .00094914  00000-0  16529-2 0  9990","2 55101  97.4193 213.8818 0010917 216.8233 143.2270 15.50358758 77731","2023-001CW","55101","6793.815","92.882","423.097","408.263","0"
"GENERATED VIA SPACETRACK.ORG API","18 SPCS","55101","SPACEBEE-159","PAYLOAD","U","23001CW","2024-05-26 16:59:55","365216","15.50448359","0.0010872","97.4189","214.4808","215.0186","145.0352","0","999","7782","0.0014157","0.00081398","0","4328401","0 SPACEBEE-159","1 55101U 23001CW  24147.70827969  .00081398  00000-0  14157-2 0  9993","2 55101  97.4189 214.4808 0010872 215.0186 145.0352 15.50448359 77828","2023-001CW","55101","6793.553","92.876","422.804","408.032","0"
"GENERATED VIA SPACETRACK.ORG API","18 SPCS","55101","SPACEBEE-159","PAYLOAD","U","23001CW","2024-05-26 16:59:55","365216","15.50448359","0.0010872","97.4189","214.4808","215.0186","145.0352","0","999","7782","0.0014157","0.00081398","0","4328412","0 SPACEBEE-159","1 55101U 23001CW  24147.70827969  .00081398  00000-0  14157-2 0  9993","2 55101  97.4189 214.4808 0010872 215.0186 145.0352 15.50448359 77828","2023-001CW","55101","6793.553","92.876","422.804","408.032","0"
"GENERATED VIA SPACETRACK.ORG API","18 SPCS","55101","SPACEBEE-159","PAYLOAD","U","23001CW","2024-05-27 03:50:28","25376","15.50526062","0.0011056","97.4186","214.9461","213.4774","146.5779","0","999","7789","0.0013743","0.00079217","0","4329170","0 SPACEBEE-159","1 55101U 23001CW  24148.16004659  .00079217  00000-0  13743-2 0  9994","2 55101  97.4186 214.9461 0011056 213.4774 146.5779 15.50526062 77899","2023-001CW","55101","6793.326","92.872","422.702","407.680","0"
"GENERATED VIA SPACETRACK.ORG API","18 SPCS","55101","SPACEBEE-159","PAYLOAD","U","23001CW","2024-05-27 17:46:50","278080","15.50613677","0.0011012","97.4183","215.5448","211.8186","148.2401","0","999","7798","0.0012407","0.0007166","0","4329284","0 SPACEBEE-159","1 55101U 23001CW  24148.74085970  .00071660  00000-0  12407-2 0  9993","2 55101  97.4183 215.5448 0011012 211.8186 148.2401 15.50613677 77989","2023-001CW","55101","6793.070","92.866","422.416","407.455","0"
"GENERATED VIA SPACETRACK.ORG API","18 SPCS","55101","SPACEBEE-159","PAYLOAD","U","23001CW","2024-05-27 22:25:37","15680","15.5064441","0.0011051","97.4182","215.744","211.1478","148.912","0","999","7801","0.0012459","0.00072044","0","4329288","0 SPACEBEE-159","1 55101U 23001CW  24148.93445620  .00072044  00000-0  12459-2 0  9990","2 55101  97.4182 215.7440 0011051 211.1478 148.9120 15.50644410 78011","2023-001CW","55101","6792.980","92.865","422.352","407.338","0"
"GENERATED VIA SPACETRACK.ORG API","18 SPCS","55101","SPACEBEE-159","PAYLOAD","U","23001CW","2024-05-28 10:48:59","958144","15.50732355","0.0011054","97.4181","216.2762","209.3018","150.7615","0","999","7809","0.0014394","0.00083628","0","4329833","0 SPACEBEE-159","1 55101U 23001CW  24149.45069396  .00083628  00000-0  14394-2 0  9990","2 55101  97.4181 216.2762 0011054 209.3018 150.7615 15.50732355 78099","2023-001CW","55101","6792.724","92.859","422.097","407.080","0"
"GENERATED VIA SPACETRACK.ORG API","18 SPCS","55101","SPACEBEE-159","PAYLOAD","U","23001CW","2024-05-28 10:48:59","958144","15.50732355","0.0011054","97.4181","216.2762","209.3018","150.7615","0","999","7809","0.0014394","0.00083628","0","4329851","0 SPACEBEE-159","1 55101U 23001CW  24149.45069396  .00083628  00000-0  14394-2 0  9990","2 55101  97.4181 216.2762 0011054 209.3018 150.7615 15.50732355 78099","2023-001CW","55101","6792.724","92.859","422.097","407.080","0"
"GENERATED VIA SPACETRACK.ORG API","18 SPCS","55101","SPACEBEE-159","PAYLOAD","U","23001CW","2024-05-29 03:51:05","586912","15.50832306","0.001112","97.418","217.0073","207.2206","152.8464","0","999","7820","0.0011442","0.00066553","0","4330413","0 SPACEBEE-159","1 55101U 23001CW  24150.16048133  .00066553  00000-0  11442-2 0  9995","2 55101  97.4180 217.0073 0011120 207.2206 152.8464 15.50832306 78207","2023-001CW","55101","6792.432","92.853","421.850","406.744","0"
"GENERATED VIA SPACETRACK.ORG API","18 SPCS","55101","SPACEBEE-159","PAYLOAD","U","23001CW","2024-05-29 10:02:44","775456","15.50866821","0.0011064","97.4179","217.2734","206.4969","153.5719","0","999","7824","0.0011973","0.00069758","0","4330703","0 SPACEBEE-159","1 55101U 23001CW  24150.41857379  .00069758  00000-0  11973-2 0  9992","2 55101  97.4179 217.2734 0011064 206.4969 153.5719 15.50866821 78249","2023-001CW","55101","6792.331","92.851","421.711","406.681","0"
"GENERATED VIA SPACETRACK.ORG API","18 SPCS","55101","SPACEBEE-159","PAYLOAD","U","23001CW","2024-05-29 17:47:18","24576","15.50918266","0.0011041","97.4178","217.6061","205.6748","154.3957","0","999","7829","0.0013006","0.00075981","0","4331016","0 SPACEBEE-159","1 55101U 23001CW  24150.74118084  .00075981  00000-0  13006-2 0  9995","2 55101  97.4178 217.6061 0011041 205.6748 154.3957 15.50918266 78295","2023-001CW","55101","6792.181","92.848","421.545","406.546","0"
"GENERATED VIA SPACETRACK.ORG API","18 SPCS","55101","SPACEBEE-159","PAYLOAD","U","23001CW","2024-05-30 03:04:44","647392","15.50982717","0.0011094","97.4179","218.0046","204.3296","155.7433","0","999","7835","0.0013382","0.00078384","0","4331273","0 SPACEBEE-159","1 55101U 23001CW  24151.12829453  .00078384  00000-0  13382-2 0  9994","2 55101  97.4179 218.0046 0011094 204.3296 155.7433 15.50982717 78359","2023-001CW","55101","6791.993","92.844","421.393","406.323","0"
"GENERATED VIA SPACETRACK.ORG API","18 SPCS","55101","SPACEBEE-159","PAYLOAD","U","23001CW","2024-05-30 03:04:44","627520","15.50983834","0.0011094","97.4179","218.0047","204.2022","155.871","0","999","7835","0.0013038","0.00076351","0","4331646","0 SPACEBEE-159","1 55101U 23001CW  24151.12829430  .00076351  00000-0  13038-2 0  9999","2 55101  97.4179 218.0047 0011094 204.2022 155.8710 15.50983834 78356","2023-001CW","55101","6791.989","92.844","421.389","406.319","0"
"GENERATED VIA SPACETRACK.ORG API","18 SPCS","55101","SPACEBEE-159","PAYLOAD","U","23001CW","2024-05-30 17:00:52","281216","15.51076576","0.0010962","97.4178","218.6038","202.8062","157.2705","0","999","7844","0.0019565","0.00115554","0","4331912","0 SPACEBEE-159","1 55101U 23001CW  24151.70893844  .00115554  00000-0  19565-2 0  9993","2 55101  97.4178 218.6038 0010962 202.8062 157.2705 15.51076576 78449","2023-001CW","55101","6791.719","92.839","421.029","406.138","0"
"GENERATED VIA SPACETRACK.ORG API","18 SPCS","55101","SPACEBEE-159","PAYLOAD","U","23001CW","2024-05-31 03:51:09","232128","15.51155504","0.0011023","97.4182","219.069","201.3767","158.7026","0","999","7851","0.0017025","0.00100637","0","4332216","0 SPACEBEE-159","1 55101U 23001CW  24152.16052352  .00100637  00000-0  17025-2 0  9990","2 55101  97.4182 219.0690 0011023 201.3767 158.7026 15.51155504 78517","2023-001CW","55101","6791.488","92.834","420.839","405.867","0"
"GENERATED VIA SPACETRACK.ORG API","18 SPCS","55101","SPACEBEE-159","PAYLOAD","U","23001CW","2024-05-31 03:51:09","232128","15.51155504","0.0011023","97.4182","219.069","201.3767","158.7026","0","999","7851","0.0017025","0.00100637","0","4332540","0 SPACEBEE-159","1 55101U 23001CW  24152.16052352  .00100637  00000-0  17025-2 0  9990","2 55101  97.4182 219.0690 0011023 201.3767 158.7026 15.51155504 78517","2023-001CW","55101","6791.488","92.834","420.839","405.867","0"
"GENERATED VIA SPACETRACK.ORG API","18 SPCS","55101","SPACEBEE-159","PAYLOAD","U","23001CW","2024-05-31 16:14:17","535840","15.51247703","0.0010939","97.4182","219.6015","200.156","159.9261","0","999","7859","0.001466","0.00086776","0","4332864","0 SPACEBEE-159","1 55101U 23001CW  24152.67659185  .00086776  00000-0  14660-2 0  9992","2 55101  97.4182 219.6015 0010939 200.1560 159.9261 15.51247703 78592","2023-001CW","55101","6791.219","92.829","420.513","405.655","0"
"GENERATED VIA SPACETRACK.ORG API","18 SPCS","55101","SPACEBEE-159","PAYLOAD","U","23001CW","2024-05-31 16:14:17","535840","15.51247702","0.0010939","97.4182","219.6015","200.1561","159.926","0","999","7859","0.001466","0.00086776","0","4333223","0 SPACEBEE-159","1 55101U 23001CW  24152.67659185  .00086776  00000-0  14660-2 0  9992","2 55101  97.4182 219.6015 0010939 200.1561 159.9260 15.51247702 78591","2023-001CW","55101","6791.219","92.829","420.513","405.655","0"
"GENERATED VIA SPACETRACK.ORG API","18 SPCS","55101","SPACEBEE-159","PAYLOAD","U","23001CW","2024-06-01 03:04:30","82080","15.51330312","0.0011028","97.4183","220.0668","198.4829","161.6024","0","999","7866","0.0013673","0.00081111","0","4333553","0 SPACEBEE-159","1 55101U 23001CW  24153.12812595  .00081111  00000-0  13673-2 0  9990","2 55101  97.4183 220.0668 0011028 198.4829 161.6024 15.51330312 78664","2023-001CW","55101","6790.978","92.824","420.332","405.354","0"
